STARLINK-31161          
1 58795U 24012J   26068.33254313 -.00000120  00000+0  51591-5 0  9998
2 58795  43.0016 167.0695 0000821 246.6906 113.3859 15.27571922121182
TRANSPORTER-10 OBJECT AG
1 59128U 24043AG  26068.92552531  .00009498  00000+0  32170-3 0  9997
2 59128  97.5471 205.7101 0009300 226.5958 133.4509 15.30759727111920
