[{"OBJECT_NAME":"STARLINK-31161","OBJECT_ID":"2024-012J","EPOCH":"2026-03-09T07:58:51.726432","MEAN_MOTION":15.27571922,"ECCENTRICITY":8.21e-5,"INCLINATION":43.0016,"RA_OF_ASC_NODE":167.0695,"ARG_OF_PERICENTER":246.6906,"MEAN_ANOMALY":113.3859,"EPHEMERIS_TYPE":0,"CLASSIFICATION_TYPE":"U","NORAD_CAT_ID":58795,"ELEMENT_SET_NO":999,"REV_AT_EPOCH":12118,"BSTAR":5.159107e-6,"MEAN_MOTION_DOT":-1.2e-6,"MEAN_MOTION_DDOT":0},{"OBJECT_NAME":"TRANSPORTER-10 OBJECT AG","OBJECT_ID":"2024-043AG","EPOCH":"2026-03-09T22:12:45.387648","MEAN_MOTION":15.30759727,"ECCENTRICITY":0.00093005,"INCLINATION":97.5471,"RA_OF_ASC_NODE":205.7101,"ARG_OF_PERICENTER":226.5958,"MEAN_ANOMALY":133.4509,"EPHEMERIS_TYPE":0,"CLASSIFICATION_TYPE":"U","NORAD_CAT_ID":59128,"ELEMENT_SET_NO":999,"REV_AT_EPOCH":11192,"BSTAR":0.00032170115,"MEAN_MOTION_DOT":9.498e-5,"MEAN_MOTION_DDOT":0}]
